[{"OBJECT_NAME":"STARLINK-36939","OBJECT_ID":"2026-040V","EPOCH":"2026-03-15T06:00:00.999648","MEAN_MOTION":15.92873633,"ECCENTRICITY":0.00014376,"INCLINATION":97.2773,"RA_OF_ASC_NODE":22.9296,"ARG_OF_PERICENTER":109.8206,"MEAN_ANOMALY":33.6628,"EPHEMERIS_TYPE":0,"CLASSIFICATION_TYPE":"U","NORAD_CAT_ID":68034,"ELEMENT_SET_NO":999,"REV_AT_EPOCH":331,"BSTAR":-0.0045637659,"MEAN_MOTION_DOT":-0.01560907,"MEAN_MOTION_DDOT":0.00069277614},{"OBJECT_NAME":"STARLINK-36943","OBJECT_ID":"2026-040W","EPOCH":"2026-03-15T06:00:00.999648","MEAN_MOTION":15.92738637,"ECCENTRICITY":0.00014632,"INCLINATION":97.2793,"RA_OF_ASC_NODE":22.9397,"ARG_OF_PERICENTER":111.8315,"MEAN_ANOMALY":52.916,"EPHEMERIS_TYPE":0,"CLASSIFICATION_TYPE":"U","NORAD_CAT_ID":68035,"ELEMENT_SET_NO":999,"REV_AT_EPOCH":336,"BSTAR":-0.0052624004,"MEAN_MOTION_DOT":-0.01784519,"MEAN_MOTION_DDOT":0.00088729999},{"OBJECT_NAME":"STARLINK-36906","OBJECT_ID":"2026-040X","EPOCH":"2026-03-15T06:00:00.999648","MEAN_MOTION":15.92815929,"ECCENTRICITY":0.00014141,"INCLINATION":97.2763,"RA_OF_ASC_NODE":22.9274,"ARG_OF_PERICENTER":105.0518,"MEAN_ANOMALY":34.4658,"EPHEMERIS_TYPE":0,"CLASSIFICATION_TYPE":"U","NORAD_CAT_ID":68036,"ELEMENT_SET_NO":999,"REV_AT_EPOCH":331,"BSTAR":-0.0045769281,"MEAN_MOTION_DOT":-0.01560731,"MEAN_MOTION_DDOT":0.00069222719},{"OBJECT_NAME":"STARLINK-36388","OBJECT_ID":"2026-040Y","EPOCH":"2026-03-15T06:00:00.999648","MEAN_MOTION":15.92898252,"ECCENTRICITY":0.00014233,"INCLINATION":97.2777,"RA_OF_ASC_NODE":22.9319,"ARG_OF_PERICENTER":107.5486,"MEAN_ANOMALY":41.0142,"EPHEMERIS_TYPE":0,"CLASSIFICATION_TYPE":"U","NORAD_CAT_ID":68037,"ELEMENT_SET_NO":999,"REV_AT_EPOCH":327,"BSTAR":-0.0045941548,"MEAN_MOTION_DOT":-0.01573165,"MEAN_MOTION_DDOT":0.00070307326},{"OBJECT_NAME":"STARLINK-36895","OBJECT_ID":"2026-040Z","EPOCH":"2026-03-15T06:00:00.999648","MEAN_MOTION":15.92764948,"ECCENTRICITY":0.00013403,"INCLINATION":97.2747,"RA_OF_ASC_NODE":22.9243,"ARG_OF_PERICENTER":108.4634,"MEAN_ANOMALY":26.8693,"EPHEMERIS_TYPE":0,"CLASSIFICATION_TYPE":"U","NORAD_CAT_ID":68038,"ELEMENT_SET_NO":999,"REV_AT_EPOCH":331,"BSTAR":-0.0045693486,"MEAN_MOTION_DOT":-0.01554095,"MEAN_MOTION_DDOT":0.00068642635},{"OBJECT_NAME":"STARLINK-36373","OBJECT_ID":"2026-040AA","EPOCH":"2026-03-15T06:00:00.999648","MEAN_MOTION":15.92737745,"ECCENTRICITY":0.00013268,"INCLINATION":97.2745,"RA_OF_ASC_NODE":22.9228,"ARG_OF_PERICENTER":104.0972,"MEAN_ANOMALY":26.5463,"EPHEMERIS_TYPE":0,"CLASSIFICATION_TYPE":"U","NORAD_CAT_ID":68039,"ELEMENT_SET_NO":999,"REV_AT_EPOCH":327,"BSTAR":-0.0045583558,"MEAN_MOTION_DOT":-0.01548238,"MEAN_MOTION_DDOT":0.00068145248},{"OBJECT_NAME":"STARLINK-37022","OBJECT_ID":"2026-044A","EPOCH":"2026-03-15T06:00:00.999648","MEAN_MOTION":15.98698488,"ECCENTRICITY":0.00015828,"INCLINATION":97.2821,"RA_OF_ASC_NODE":34.5434,"ARG_OF_PERICENTER":113.4835,"MEAN_ANOMALY":25.1826,"EPHEMERIS_TYPE":0,"CLASSIFICATION_TYPE":"U","NORAD_CAT_ID":68101,"ELEMENT_SET_NO":999,"REV_AT_EPOCH":229,"BSTAR":-0.003809711,"MEAN_MOTION_DOT":-0.01778361,"MEAN_MOTION_DDOT":0.00093986949},{"OBJECT_NAME":"STARLINK-37046","OBJECT_ID":"2026-044B","EPOCH":"2026-03-15T06:00:00.999648","MEAN_MOTION":15.98817374,"ECCENTRICITY":0.00014949,"INCLINATION":97.2822,"RA_OF_ASC_NODE":34.5443,"ARG_OF_PERICENTER":107.2418,"MEAN_ANOMALY":33.0404,"EPHEMERIS_TYPE":0,"CLASSIFICATION_TYPE":"U","NORAD_CAT_ID":68102,"ELEMENT_SET_NO":999,"REV_AT_EPOCH":229,"BSTAR":-0.0037741381,"MEAN_MOTION_DOT":-0.01773473,"MEAN_MOTION_DDOT":0.0009362874},{"OBJECT_NAME":"STARLINK-37018","OBJECT_ID":"2026-044C","EPOCH":"2026-03-15T06:00:00.999648","MEAN_MOTION":15.98955861,"ECCENTRICITY":0.00014597,"INCLINATION":97.2818,"RA_OF_ASC_NODE":34.5453,"ARG_OF_PERICENTER":108.1684,"MEAN_ANOMALY":34.5331,"EPHEMERIS_TYPE":0,"CLASSIFICATION_TYPE":"U","NORAD_CAT_ID":68103,"ELEMENT_SET_NO":999,"REV_AT_EPOCH":224,"BSTAR":-0.0037442666,"MEAN_MOTION_DOT":-0.01773054,"MEAN_MOTION_DDOT":0.00093733787},{"OBJECT_NAME":"STARLINK-37041","OBJECT_ID":"2026-044D","EPOCH":"2026-03-15T06:00:00.999648","MEAN_MOTION":15.99231015,"ECCENTRICITY":0.00014638,"INCLINATION":97.282,"RA_OF_ASC_NODE":34.5474,"ARG_OF_PERICENTER":108.2062,"MEAN_ANOMALY":38.8031,"EPHEMERIS_TYPE":0,"CLASSIFICATION_TYPE":"U","NORAD_CAT_ID":68104,"ELEMENT_SET_NO":999,"REV_AT_EPOCH":224,"BSTAR":-0.0037046171,"MEAN_MOTION_DOT":-0.01781344,"MEAN_MOTION_DDOT":0.00094853335},{"OBJECT_NAME":"STARLINK-37021","OBJECT_ID":"2026-044E","EPOCH":"2026-03-15T06:00:00.999648","MEAN_MOTION":15.99352862,"ECCENTRICITY":0.00014423,"INCLINATION":97.2815,"RA_OF_ASC_NODE":34.5479,"ARG_OF_PERICENTER":107.3039,"MEAN_ANOMALY":41.5379,"EPHEMERIS_TYPE":0,"CLASSIFICATION_TYPE":"U","NORAD_CAT_ID":68105,"ELEMENT_SET_NO":999,"REV_AT_EPOCH":224,"BSTAR":-0.0036630267,"MEAN_MOTION_DOT":-0.01773487,"MEAN_MOTION_DDOT":0.0009420025},{"OBJECT_NAME":"STARLINK-37024","OBJECT_ID":"2026-044F","EPOCH":"2026-03-15T06:00:00.999648","MEAN_MOTION":15.99482957,"ECCENTRICITY":0.00014818,"INCLINATION":97.2816,"RA_OF_ASC_NODE":34.5482,"ARG_OF_PERICENTER":111.8928,"MEAN_ANOMALY":39.0095,"EPHEMERIS_TYPE":0,"CLASSIFICATION_TYPE":"U","NORAD_CAT_ID":68106,"ELEMENT_SET_NO":999,"REV_AT_EPOCH":224,"BSTAR":-0.0036268276,"MEAN_MOTION_DOT":-0.01768882,"MEAN_MOTION_DDOT":0.00093880782},{"OBJECT_NAME":"STARLINK-37005","OBJECT_ID":"2026-044G","EPOCH":"2026-03-15T06:00:00.999648","MEAN_MOTION":15.99089403,"ECCENTRICITY":0.00013877,"INCLINATION":97.2819,"RA_OF_ASC_NODE":34.5458,"ARG_OF_PERICENTER":112.0241,"MEAN_ANOMALY":32.8142,"EPHEMERIS_TYPE":0,"CLASSIFICATION_TYPE":"U","NORAD_CAT_ID":68107,"ELEMENT_SET_NO":999,"REV_AT_EPOCH":224,"BSTAR":-0.0037158459,"MEAN_MOTION_DOT":-0.01772738,"MEAN_MOTION_DDOT":0.00093844189},{"OBJECT_NAME":"STARLINK-37017","OBJECT_ID":"2026-044H","EPOCH":"2026-03-15T06:00:00.999648","MEAN_MOTION":15.99619171,"ECCENTRICITY":0.00014146,"INCLINATION":97.2816,"RA_OF_ASC_NODE":34.55,"ARG_OF_PERICENTER":110.1917,"MEAN_ANOMALY":43.0548,"EPHEMERIS_TYPE":0,"CLASSIFICATION_TYPE":"U","NORAD_CAT_ID":68108,"ELEMENT_SET_NO":999,"REV_AT_EPOCH":224,"BSTAR":-0.003597741,"MEAN_MOTION_DOT":-0.0176816,"MEAN_MOTION_DDOT":0.00093955028},{"OBJECT_NAME":"STARLINK-36833","OBJECT_ID":"2026-044J","EPOCH":"2026-03-15T06:00:00.999648","MEAN_MOTION":15.99885036,"ECCENTRICITY":0.00016089,"INCLINATION":97.281,"RA_OF_ASC_NODE":34.5509,"ARG_OF_PERICENTER":114.8881,"MEAN_ANOMALY":42.6329,"EPHEMERIS_TYPE":0,"CLASSIFICATION_TYPE":"U","NORAD_CAT_ID":68109,"ELEMENT_SET_NO":999,"REV_AT_EPOCH":229,"BSTAR":-0.0035391859,"MEAN_MOTION_DOT":-0.01765703,"MEAN_MOTION_DDOT":0.00093995878},{"OBJECT_NAME":"STARLINK-36830","OBJECT_ID":"2026-044K","EPOCH":"2026-03-15T06:00:00.999648","MEAN_MOTION":15.99761545,"ECCENTRICITY":0.00015554,"INCLINATION":97.2812,"RA_OF_ASC_NODE":34.5501,"ARG_OF_PERICENTER":111.9186,"MEAN_ANOMALY":43.7033,"EPHEMERIS_TYPE":0,"CLASSIFICATION_TYPE":"U","NORAD_CAT_ID":68110,"ELEMENT_SET_NO":999,"REV_AT_EPOCH":229,"BSTAR":-0.0035784379,"MEAN_MOTION_DOT":-0.01772804,"MEAN_MOTION_DDOT":0.0009457265}]
