STARLINK-36939          
1 68034U 26040V   26074.25001157 -.01560907  69278-3 -45638-2 0  9996
2 68034  97.2773  22.9296 0001437 109.8206  33.6628 15.92873633  3311
STARLINK-36943          
1 68035U 26040W   26074.25001157 -.01784519  88730-3 -52624-2 0  9991
2 68035  97.2793  22.9397 0001463 111.8315  52.9160 15.92738637  3363
STARLINK-36906          
1 68036U 26040X   26074.25001157 -.01560731  69223-3 -45769-2 0  9998
2 68036  97.2763  22.9274 0001414 105.0518  34.4658 15.92815929  3313
STARLINK-36388          
1 68037U 26040Y   26074.25001157 -.01573165  70307-3 -45942-2 0  9992
2 68037  97.2777  22.9319 0001423 107.5486  41.0142 15.92898252  3277
STARLINK-36895          
1 68038U 26040Z   26074.25001157 -.01554095  68643-3 -45693-2 0  9997
2 68038  97.2747  22.9243 0001340 108.4634  26.8693 15.92764948  3315
STARLINK-36373          
1 68039U 26040AA  26074.25001157 -.01548238  68145-3 -45584-2 0  9996
2 68039  97.2745  22.9228 0001326 104.0972  26.5463 15.92737745  3270
STARLINK-37022          
1 68101U 26044A   26074.25001157 -.01778361  93987-3 -38097-2 0  9995
2 68101  97.2821  34.5434 0001582 113.4835  25.1826 15.98698488  2294
STARLINK-37046          
1 68102U 26044B   26074.25001157 -.01773473  93629-3 -37741-2 0  9993
2 68102  97.2822  34.5443 0001494 107.2418  33.0404 15.98817374  2293
STARLINK-37018          
1 68103U 26044C   26074.25001157 -.01773054  93734-3 -37443-2 0  9995
2 68103  97.2818  34.5453 0001459 108.1684  34.5331 15.98955861  2240
STARLINK-37041          
1 68104U 26044D   26074.25001157 -.01781344  94853-3 -37046-2 0  9999
2 68104  97.2820  34.5474 0001463 108.2062  38.8031 15.99231015  2246
STARLINK-37021          
1 68105U 26044E   26074.25001157 -.01773487  94200-3 -36630-2 0  9993
2 68105  97.2815  34.5479 0001442 107.3039  41.5379 15.99352862  2247
STARLINK-37024          
1 68106U 26044F   26074.25001157 -.01768882  93881-3 -36268-2 0  9998
2 68106  97.2816  34.5482 0001481 111.8928  39.0095 15.99482957  2249
STARLINK-37005          
1 68107U 26044G   26074.25001157 -.01772738  93844-3 -37158-2 0  9992
2 68107  97.2819  34.5458 0001387 112.0241  32.8142 15.99089403  2245
STARLINK-37017          
1 68108U 26044H   26074.25001157 -.01768160  93955-3 -35977-2 0  9997
2 68108  97.2816  34.5500 0001414 110.1917  43.0548 15.99619171  2246
STARLINK-36833          
1 68109U 26044J   26074.25001157 -.01765703  93996-3 -35392-2 0  9994
2 68109  97.2810  34.5509 0001608 114.8881  42.6329 15.99885036  2298
STARLINK-36830          
1 68110U 26044K   26074.25001157 -.01772804  94573-3 -35784-2 0  9993
2 68110  97.2812  34.5501 0001555 111.9186  43.7033 15.99761545  2293
